NORAD_CAT_ID,OBJECT_NAME,OBJECT_TYPE,EPOCH,MEAN_MOTION,ECCENTRICITY,INCLINATION,RA_OF_ASC_NODE,ARG_OF_PERICENTER,MEAN_ANOMALY,BSTAR,MEAN_MOTION_DOT,MEAN_MOTION_DDOT,TLE_LINE0,TLE_LINE1,TLE_LINE2,SEMIMAJOR_AXIS,PERIOD,APOGEE,PERIGEE,DECAYED
51858.0,STARLINK-3563,PAYLOAD,2024-01-04 07:04:22,15.08848278,0.0001443,53.2181,349.7856,97.0383,263.0773,9.3544e-05,1.201e-05,0.0,0 STARLINK-3563,1 51858U 22022G   24004.29470278  .00001201  00000-0  93544-4 0  9997,2 51858  53.2181 349.7856 0001443  97.0383 263.0773 15.08848278102948,6917.855,95.437,540.718,538.722,0.0
51858.0,STARLINK-3563,PAYLOAD,2024-01-04 22:58:13,15.08841667,0.0001643,53.2188,346.8104,109.4367,250.6803,7.3922e-05,8.89e-06,0.0,0 STARLINK-3563,1 51858U 22022G   24004.95710645  .00000889  00000-0  73922-4 0  9994,2 51858  53.2188 346.8104 0001643 109.4367 250.6803 15.08841667103044,6917.875,95.437,540.877,538.604,0.0
51858.0,STARLINK-3563,PAYLOAD,2024-01-05 03:44:23,15.08844874,0.0001668,53.2187,345.9191,111.6961,248.4209,0.00010835,1.437e-05,0.0,0 STARLINK-3563,1 51858U 22022G   24005.15582299  .00001437  00000-0  10835-3 0  9992,2 51858  53.2187 345.9191 0001668 111.6961 248.4209 15.08844874103072,6917.865,95.437,540.884,538.577,0.0
51858.0,STARLINK-3563,PAYLOAD,2024-01-05 22:49:01,15.08844278,0.0001473,53.2187,342.355,96.8067,263.3093,-2.6715e-05,-7.13e-06,0.0,0 STARLINK-3563,1 51858U 22022G   24005.95070939 -.00000713  00000-0 -26715-4 0  9996,2 51858  53.2187 342.3550 0001473  96.8067 263.3093 15.08844278103195,6917.867,95.437,540.751,538.713,0.0
51858.0,STARLINK-3563,PAYLOAD,2024-01-06 03:35:10,15.08844144,0.0001382,53.2181,341.4631,100.5828,259.532,1.1147e-05,-1.11e-06,0.0,0 STARLINK-3563,1 51858U 22022G   24006.14942725 -.00000111  00000-0  11147-4 0  9993,2 51858  53.2181 341.4631 0001382 100.5828 259.5320 15.08844144103222,6917.868,95.437,540.689,538.777,0.0
51858.0,STARLINK-3563,PAYLOAD,2024-01-06 08:21:17,15.08873564,0.0001616,53.218,340.5673,124.9912,235.1232,0.00031485,4.731e-05,0.0,0 STARLINK-3563,1 51858U 22022G   24006.34811631  .00004731  00000-0  31485-3 0  9993,2 51858  53.2180 340.5673 0001616 124.9912 235.1232 15.08873564103254,6917.778,95.435,540.761,538.525,0.0
51858.0,STARLINK-3563,PAYLOAD,2024-01-06 22:39:48,15.08832961,0.0001394,53.2181,337.8928,87.5596,272.5556,-2.0997e-05,-6.22e-06,0.0,0 STARLINK-3563,1 51858U 22022G   24006.94431240 -.00000622  00000-0 -20997-4 0  9997,2 51858  53.2181 337.8928 0001394  87.5596 272.5556 15.08832961103342,6917.902,95.438,540.731,538.803,0.0
51858.0,STARLINK-3563,PAYLOAD,2024-01-07 03:25:58,15.08829236,0.0001528,53.2192,337.0042,80.6499,279.4666,-5.7576e-05,-1.204e-05,0.0,0 STARLINK-3563,1 51858U 22022G   24007.14303723 -.00001204  00000-0 -57576-4 0  9994,2 51858  53.2192 337.0042 0001528  80.6499 279.4666 15.08829236103370,6917.913,95.438,540.835,538.721,0.0
51858.0,STARLINK-3563,PAYLOAD,2024-01-08 03:16:44,15.08843725,0.0001565,53.2182,332.5398,89.3473,270.7698,0.00010857,1.44e-05,0.0,0 STARLINK-3563,1 51858U 22022G   24008.13662871  .00001440  00000-0  10857-3 0  9996,2 51858  53.2182 332.5398 0001565  89.3473 270.7698 15.08843725103527,6917.869,95.437,540.817,538.651,0.0
51858.0,STARLINK-3563,PAYLOAD,2024-01-08 06:27:30,15.08856178,0.0001607,53.2176,331.9441,88.301,271.8167,-8.5235e-05,-1.645e-05,0.0,0 STARLINK-3563,1 51858U 22022G   24008.26910023 -.00001645  00000-0 -85235-4 0  9997,2 51858  53.2176 331.9441 0001607  88.3010 271.8167 15.08856178103546,6917.831,95.437,540.808,538.584,0.0
51858.0,STARLINK-3563,PAYLOAD,2024-01-09 04:42:55,15.08839485,0.0001806,53.2171,327.7803,106.582,253.537,0.00024217,3.568e-05,0.0,0 STARLINK-3563,1 51858U 22022G   24009.19647268  .00003568  00000-0  24217-3 0  9994,2 51858  53.2171 327.7803 0001806 106.5820 253.5370 15.08839485103689,6917.882,95.438,540.996,538.498,0.0
51858.0,STARLINK-3563,PAYLOAD,2024-01-09 06:18:18,15.08840861,0.0001814,53.2176,327.4806,100.6744,259.4452,0.00026358,3.909e-05,0.0,0 STARLINK-3563,1 51858U 22022G   24009.26271189  .00003909  00000-0  26358-3 0  9994,2 51858  53.2176 327.4806 0001814 100.6744 259.4452 15.08840861103690,6917.878,95.438,540.998,538.488,0.0
51858.0,STARLINK-3563,PAYLOAD,2024-01-10 04:33:42,15.08846929,0.0001827,53.2176,323.319,94.568,265.5521,0.0001304,1.788e-05,0.0,0 STARLINK-3563,1 51858U 22022G   24010.19007176  .00001788  00000-0  13040-3 0  9998,2 51858  53.2176 323.3190 0001827  94.5680 265.5521 15.08846929103837,6917.859,95.437,540.988,538.46,0.0
51858.0,STARLINK-3563,PAYLOAD,2024-01-11 02:49:05,15.08850612,0.0001716,53.2172,319.1567,109.7527,250.3651,0.00021398,3.12e-05,0.0,0 STARLINK-3563,1 51858U 22022G   24011.11742999  .00003120  00000-0  21398-3 0  9997,2 51858  53.2172 319.1567 0001716 109.7527 250.3651 15.08850612103975,6917.848,95.437,540.9,538.526,0.0
51858.0,STARLINK-3563,PAYLOAD,2024-01-11 20:18:20,15.08845876,0.000169,53.2154,315.8967,76.5272,283.5909,0.00013966,1.936e-05,0.0,0 STARLINK-3563,1 51858U 22022G   24011.84607552  .00001936  00000-0  13966-3 0  9997,2 51858  53.2154 315.8967 0001690  76.5272 283.5909 15.08845876104084,6917.862,95.437,540.897,538.558,0.0
51858.0,STARLINK-3563,PAYLOAD,2024-01-12 05:50:39,15.08849802,0.0001829,53.2181,314.1015,110.1292,249.9897,0.00018342,2.633e-05,0.0,0 STARLINK-3563,1 51858U 22022G   24012.24350947  .00002633  00000-0  18342-3 0  9993,2 51858  53.2181 314.1015 0001829 110.1292 249.9897 15.08849802104143,6917.85,95.437,540.981,538.45,0.0
51858.0,STARLINK-3563,PAYLOAD,2024-01-12 20:09:08,15.08834537,0.0001867,53.2189,311.4165,119.6572,240.4606,-0.00011128,-2.058e-05,0.0,0 STARLINK-3563,1 51858U 22022G   24012.83967797 -.00002058  00000-0 -11128-3 0  9993,2 51858  53.2189 311.4165 0001867 119.6572 240.4606 15.08834537104237,6917.897,95.438,541.054,538.471,0.0
51858.0,STARLINK-3563,PAYLOAD,2024-01-13 05:41:26,15.0883887,0.0001839,53.2171,309.6403,111.0268,249.0921,5.6666e-06,-1.98e-06,0.0,0 STARLINK-3563,1 51858U 22022G   24013.23711804 -.00000198  00000-0  56666-5 0  9994,2 51858  53.2171 309.6403 0001839 111.0268 249.0921 15.08838870104294,6917.884,95.438,541.021,538.477,0.0
51858.0,STARLINK-3563,PAYLOAD,2024-01-14 02:21:28,15.08838523,0.000186,53.2189,305.776,97.5254,262.5949,5.2959e-05,5.55e-06,0.0,0 STARLINK-3563,1 51858U 22022G   24014.09824219  .00000555  00000-0  52959-4 0  9990,2 51858  53.2189 305.7760 0001860  97.5254 262.5949 15.08838523104423,6917.885,95.438,541.037,538.463,0.0
51858.0,STARLINK-3563,PAYLOAD,2024-01-14 05:32:14,15.08841605,0.0001961,53.2188,305.1789,111.0078,249.1124,0.00011368,1.522e-05,0.0,0 STARLINK-3563,1 51858U 22022G   24014.23072106  .00001522  00000-0  11368-3 0  9999,2 51858  53.2188 305.1789 0001961 111.0078 249.1124 15.08841605104448,6917.875,95.437,541.097,538.384,0.0
51858.0,STARLINK-3563,PAYLOAD,2024-01-14 23:01:28,15.08845159,0.0001684,53.218,301.908,99.9807,260.1376,0.00020376,2.957e-05,0.0,0 STARLINK-3563,1 51858U 22022G   24014.95936073  .00002957  00000-0  20376-3 0  9992,2 51858  53.2180 301.9080 0001684  99.9807 260.1376 15.08845159104556,6917.865,95.437,540.895,538.565,0.0
51858.0,STARLINK-3563,PAYLOAD,2024-01-15 00:36:51,15.08847322,0.0001667,53.2177,301.6106,99.6089,260.5091,0.00023632,3.476e-05,0.0,0 STARLINK-3563,1 51858U 22022G   24015.02559946  .00003476  00000-0  23632-3 0  9996,2 51858  53.2177 301.6106 0001667  99.6089 260.5091 15.08847322104561,6917.858,95.437,540.876,538.57,0.0
51858.0,STARLINK-3563,PAYLOAD,2024-01-16 03:38:25,15.08846398,0.0001676,53.2177,296.5554,104.0812,256.0366,9.0827e-05,1.158e-05,0.0,0 STARLINK-3563,1 51858U 22022G   24016.15167855  .00001158  00000-0  90827-4 0  9991,2 51858  53.2177 296.5554 0001676 104.0812 256.0366 15.08846398104731,6917.861,95.437,540.885,538.566,0.0
51858.0,STARLINK-3563,PAYLOAD,2024-01-16 05:13:48,15.08846953,0.0001675,53.2175,296.2596,106.9454,253.1722,9.7525e-05,1.265e-05,0.0,0 STARLINK-3563,1 51858U 22022G   24016.21791797  .00001265  00000-0  97525-4 0  9997,2 51858  53.2175 296.2596 0001675 106.9454 253.1722 15.08846953104746,6917.859,95.437,540.883,538.565,0.0
51858.0,STARLINK-3563,PAYLOAD,2024-01-17 01:53:48,15.08845321,0.0001469,53.2162,292.3941,107.9068,252.2084,-1.7421e-05,-5.65e-06,0.0,0 STARLINK-3563,1 51858U 22022G   24017.07903662 -.00000565  00000-0 -17421-4 0  9999,2 51858  53.2162 292.3941 0001469 107.9068 252.2084 15.08845321104879,6917.864,95.437,540.745,538.713,0.0
51858.0,STARLINK-3563,PAYLOAD,2024-01-17 22:33:50,15.08836943,0.0001444,53.2157,288.5298,124.1237,235.9892,-3.3509e-05,-8.21e-06,0.0,0 STARLINK-3563,1 51858U 22022G   24017.94016417 -.00000821  00000-0 -33509-4 0  9998,2 51858  53.2157 288.5298 0001444 124.1237 235.9892 15.08836943105008,6917.89,95.438,540.754,538.756,0.0
51858.0,STARLINK-3563,PAYLOAD,2024-01-18 03:19:59,15.08844355,0.0001447,53.2163,287.637,102.0968,258.0186,0.0001205,1.631e-05,0.0,0 STARLINK-3563,1 51858U 22022G   24018.13888290  .00001631  00000-0  12050-3 0  9991,2 51858  53.2163 287.6370 0001447 102.0968 258.0186 15.08844355105036,6917.867,95.437,540.733,538.731,0.0
51858.0,STARLINK-3563,PAYLOAD,2024-01-18 20:49:14,15.08841634,0.0001658,53.2171,284.3653,71.8716,288.2456,0.00013214,1.816e-05,0.0,0 STARLINK-3563,1 51858U 22022G   24018.86752839  .00001816  00000-0  13214-3 0  9998,2 51858  53.2171 284.3653 0001658  71.8716 288.2456 15.08841634105145,6917.875,95.437,540.887,538.593,0.0
51858.0,STARLINK-3563,PAYLOAD,2024-01-19 00:00:00,15.08846734,0.0001285,53.2147,283.7755,108.563,251.5502,0.00018738,2.696e-05,0.0,0 STARLINK-3563,1 51858U 22022G   24019.00000319  .00002696  00000-0  18738-3 0  9997,2 51858  53.2147 283.7755 0001285 108.5630 251.5502 15.08846734105166,6917.86,95.437,540.614,538.836,0.0
51858.0,STARLINK-3563,PAYLOAD,2024-01-19 17:29:15,15.08846724,0.0001984,53.2134,280.5095,56.3241,303.794,0.0001684,2.393e-05,0.0,0 STARLINK-3563,1 51858U 22022G   24019.72864751  .00002393  00000-0  16840-3 0  9990,2 51858  53.2134 280.5095 0001984  56.3241 303.7940 15.08846724105275,6917.86,95.437,541.097,538.352,0.0
